start=new Date('2023-03-19T00:00:00.000Z').valueOf();
sats=[{"MEAN_MOTION":"15.08870081","INCLINATION":"53.2159","DECAY_DATE":null,"MEAN_MOTION_DDOT":"0.0000000000000","EPOCH":"2023-03-18T19:05:00.928896","FILE":"3864479","CLASSIFICATION_TYPE":"U","ARG_OF_PERICENTER":"99.5584","RA_OF_ASC_NODE":"208.3806","SEMIMAJOR_AXIS":"6917.788","GP_ID":"228405055","CENTER_NAME":"EARTH","COUNTRY_CODE":"US","TLE_LINE1":"1 51860U 22022J   23077.79514964  .00013582  00000-0  86909-3 0  9996","MEAN_ANOMALY":"260.5537","MEAN_ELEMENT_THEORY":"SGP4","OBJECT_TYPE":"PAYLOAD","SITE":"AFETR","OBJECT_ID":"2022-022J","ECCENTRICITY":"0.00011450","EPHEMERIS_TYPE":"0","BSTAR":"0.00086909000000","ELEMENT_SET_NO":"999","REF_FRAME":"TEME","PERIOD":"95.436","LAUNCH_DATE":"2022-03-03","RCS_SIZE":"LARGE","REV_AT_EPOCH":"5903","NORAD_CAT_ID":"51860","TLE_LINE2":"2 51860  53.2159 208.3806 0001145  99.5584 260.5537 15.08870081 59038","PERIAPSIS":"538.861","TIME_SYSTEM":"UTC","OBJECT_NAME":"STARLINK-3559","APOAPSIS":"540.446","MEAN_MOTION_DOT":"0.00013582"},{"PERIAPSIS":"538.892","TIME_SYSTEM":"UTC","MEAN_MOTION_DOT":"0.00031530","OBJECT_NAME":"STARLINK-3562","APOAPSIS":"540.316","REV_AT_EPOCH":"5894","NORAD_CAT_ID":"51861","TLE_LINE2":"2 51861  53.2167 208.4412 0001029  93.8560 266.2550 15.08886265 58942","LAUNCH_DATE":"2022-03-03","RCS_SIZE":"LARGE","ELEMENT_SET_NO":"999","BSTAR":"0.00198780000000","EPHEMERIS_TYPE":"0","PERIOD":"95.435","REF_FRAME":"TEME","SITE":"AFETR","OBJECT_TYPE":"PAYLOAD","OBJECT_ID":"2022-022K","ECCENTRICITY":"0.00010290","GP_ID":"228405310","COUNTRY_CODE":"US","CENTER_NAME":"EARTH","SEMIMAJOR_AXIS":"6917.739","MEAN_ANOMALY":"266.2550","TLE_LINE1":"1 51861U 22022K   23077.78042703  .00031530  00000-0  19878-2 0  9996","MEAN_ELEMENT_THEORY":"SGP4","EPOCH":"2023-03-18T18:43:48.895392","FILE":"3864479","CLASSIFICATION_TYPE":"U","ARG_OF_PERICENTER":"93.8560","RA_OF_ASC_NODE":"208.4412","MEAN_MOTION":"15.08886265","INCLINATION":"53.2167","MEAN_MOTION_DDOT":"0.0000000000000","DECAY_DATE":null},{"TLE_LINE2":"2 51862  53.2157 208.3978 0001296  94.5776 265.5365 15.08852134 59081","REV_AT_EPOCH":"5908","NORAD_CAT_ID":"51862","TIME_SYSTEM":"UTC","PERIAPSIS":"538.812","MEAN_MOTION_DOT":"0.00004401","APOAPSIS":"540.605","OBJECT_NAME":"STARLINK-3508","PERIOD":"95.437","REF_FRAME":"TEME","ELEMENT_SET_NO":"999","BSTAR":"0.00029432000000","EPHEMERIS_TYPE":"0","LAUNCH_DATE":"2022-03-03","RCS_SIZE":"LARGE","TLE_LINE1":"1 51862U 22022L   23077.79145352  .00004401  00000-0  29432-3 0  9997","MEAN_ANOMALY":"265.5365","CENTER_NAME":"EARTH","GP_ID":"228380239","COUNTRY_CODE":"US","SEMIMAJOR_AXIS":"6917.843","MEAN_ELEMENT_THEORY":"SGP4","OBJECT_ID":"2022-022L","SITE":"AFETR","OBJECT_TYPE":"PAYLOAD","ECCENTRICITY":"0.00012960","MEAN_MOTION":"15.08852134","MEAN_MOTION_DDOT":"0.0000000000000","DECAY_DATE":null,"INCLINATION":"53.2157","CLASSIFICATION_TYPE":"U","EPOCH":"2023-03-18T18:59:41.584128","FILE":"3864432","RA_OF_ASC_NODE":"208.3978","ARG_OF_PERICENTER":"94.5776"},{"PERIOD":"95.436","REF_FRAME":"TEME","ELEMENT_SET_NO":"999","BSTAR":"0.00078860000000","EPHEMERIS_TYPE":"0","RCS_SIZE":"LARGE","LAUNCH_DATE":"2022-03-03","TLE_LINE2":"2 51863  53.2130 208.4788 0001524  83.6859 276.4306 15.08862482 59025","REV_AT_EPOCH":"5902","NORAD_CAT_ID":"51863","MEAN_MOTION_DOT":"0.00012293","APOAPSIS":"540.731","OBJECT_NAME":"STARLINK-3555","TIME_SYSTEM":"UTC","PERIAPSIS":"538.622","DECAY_DATE":null,"MEAN_MOTION_DDOT":"0.0000000000000","INCLINATION":"53.2130","MEAN_MOTION":"15.08862482","RA_OF_ASC_NODE":"208.4788","ARG_OF_PERICENTER":"83.6859","CLASSIFICATION_TYPE":"U","FILE":"3864479","EPOCH":"2023-03-18T18:33:13.360320","MEAN_ELEMENT_THEORY":"SGP4","MEAN_ANOMALY":"276.4306","TLE_LINE1":"1 51863U 22022M   23077.77307130  .00012293  00000-0  78860-3 0  9997","CENTER_NAME":"EARTH","GP_ID":"228403812","COUNTRY_CODE":"US","SEMIMAJOR_AXIS":"6917.812","ECCENTRICITY":"0.00015240","OBJECT_ID":"2022-022M","SITE":"AFETR","OBJECT_TYPE":"PAYLOAD"},{"LAUNCH_DATE":"2022-03-03","RCS_SIZE":"LARGE","EPHEMERIS_TYPE":"0","BSTAR":"0.00100060000000","ELEMENT_SET_NO":"999","REF_FRAME":"TEME","PERIOD":"95.435","PERIAPSIS":"538.773","TIME_SYSTEM":"UTC","OBJECT_NAME":"STARLINK-3548","APOAPSIS":"540.515","MEAN_MOTION_DOT":"0.00015687","NORAD_CAT_ID":"51864","REV_AT_EPOCH":"5907","TLE_LINE2":"2 51864  53.2134 208.4301 0001259  82.5942 277.5193 15.08873031 59070","EPOCH":"2023-03-18T18:49:06.905280","FILE":"3864479","CLASSIFICATION_TYPE":"U","ARG_OF_PERICENTER":"82.5942","RA_OF_ASC_NODE":"208.4301","MEAN_MOTION":"15.08873031","INCLINATION":"53.2134","MEAN_MOTION_DDOT":"0.0000000000000","DECAY_DATE":null,"OBJECT_TYPE":"PAYLOAD","SITE":"AFETR","OBJECT_ID":"2022-022N","ECCENTRICITY":"0.00012590","SEMIMAJOR_AXIS":"6917.779","GP_ID":"228404555","CENTER_NAME":"EARTH","COUNTRY_CODE":"US","MEAN_ANOMALY":"277.5193","TLE_LINE1":"1 51864U 22022N   23077.78410770  .00015687  00000-0  10006-2 0  9991","MEAN_ELEMENT_THEORY":"SGP4"},{"SEMIMAJOR_AXIS":"6917.737","GP_ID":"228404810","COUNTRY_CODE":"US","CENTER_NAME":"EARTH","MEAN_ANOMALY":"268.1250","TLE_LINE1":"1 51865U 22022P   23077.83194787  .00021523  00000-0  13645-2 0  9993","MEAN_ELEMENT_THEORY":"SGP4","OBJECT_TYPE":"PAYLOAD","SITE":"AFETR","OBJECT_ID":"2022-022P","ECCENTRICITY":"0.00013840","MEAN_MOTION":"15.08887060","INCLINATION":"53.2137","DECAY_DATE":null,"MEAN_MOTION_DDOT":"0.0000000000000","EPOCH":"2023-03-18T19:58:00.295968","FILE":"3864479","CLASSIFICATION_TYPE":"U","ARG_OF_PERICENTER":"91.9901","RA_OF_ASC_NODE":"208.2125","REV_AT_EPOCH":"5903","NORAD_CAT_ID":"51865","TLE_LINE2":"2 51865  53.2137 208.2125 0001384  91.9901 268.1250 15.08887060 59037","PERIAPSIS":"538.644","TIME_SYSTEM":"UTC","APOAPSIS":"540.559","OBJECT_NAME":"STARLINK-3503","MEAN_MOTION_DOT":"0.00021523","EPHEMERIS_TYPE":"0","BSTAR":"0.00136450000000","ELEMENT_SET_NO":"999","REF_FRAME":"TEME","PERIOD":"95.435","LAUNCH_DATE":"2022-03-03","RCS_SIZE":"LARGE"},{"ECCENTRICITY":"0.00012470","SITE":"AFETR","OBJECT_TYPE":"PAYLOAD","OBJECT_ID":"2022-022Q","MEAN_ELEMENT_THEORY":"SGP4","GP_ID":"228379232","CENTER_NAME":"EARTH","COUNTRY_CODE":"US","SEMIMAJOR_AXIS":"6917.756","MEAN_ANOMALY":"269.7938","TLE_LINE1":"1 51866U 22022Q   23077.77674881  .00018803  00000-0  11950-2 0  9999","ARG_OF_PERICENTER":"90.3197","RA_OF_ASC_NODE":"208.4611","EPOCH":"2023-03-18T18:38:31.097184","FILE":"3864395","CLASSIFICATION_TYPE":"U","INCLINATION":"53.2150","DECAY_DATE":null,"MEAN_MOTION_DDOT":"0.0000000000000","MEAN_MOTION":"15.08880691","MEAN_MOTION_DOT":"0.00018803","OBJECT_NAME":"STARLINK-3553","APOAPSIS":"540.484","PERIAPSIS":"538.758","TIME_SYSTEM":"UTC","NORAD_CAT_ID":"51866","REV_AT_EPOCH":"5902","TLE_LINE2":"2 51866  53.2150 208.4611 0001247  90.3197 269.7938 15.08880691 59025","RCS_SIZE":"LARGE","LAUNCH_DATE":"2022-03-03","ELEMENT_SET_NO":"999","EPHEMERIS_TYPE":"0","BSTAR":"0.00119500000000","PERIOD":"95.435","REF_FRAME":"TEME"},{"MEAN_MOTION":"15.08878845","DECAY_DATE":null,"MEAN_MOTION_DDOT":"0.0000000000000","INCLINATION":"53.2161","CLASSIFICATION_TYPE":"U","EPOCH":"2023-03-18T19:52:42.332736","FILE":"3864432","RA_OF_ASC_NODE":"208.2259","ARG_OF_PERICENTER":"77.7159","TLE_LINE1":"1 51867U 22022R   23077.82826774  .00018262  00000-0  11613-2 0  9991","MEAN_ANOMALY":"282.3993","GP_ID":"228380238","COUNTRY_CODE":"US","CENTER_NAME":"EARTH","SEMIMAJOR_AXIS":"6917.762","MEAN_ELEMENT_THEORY":"SGP4","OBJECT_ID":"2022-022R","SITE":"AFETR","OBJECT_TYPE":"PAYLOAD","ECCENTRICITY":"0.00014310","PERIOD":"95.435","REF_FRAME":"TEME","ELEMENT_SET_NO":"999","EPHEMERIS_TYPE":"0","BSTAR":"0.00116130000000","LAUNCH_DATE":"2022-03-03","RCS_SIZE":"MEDIUM","TLE_LINE2":"2 51867  53.2161 208.2259 0001431  77.7159 282.3993 15.08878845 59037","REV_AT_EPOCH":"5903","NORAD_CAT_ID":"51867","TIME_SYSTEM":"UTC","PERIAPSIS":"538.637","MEAN_MOTION_DOT":"0.00018262","OBJECT_NAME":"STARLINK-3590","APOAPSIS":"540.617"},{"SEMIMAJOR_AXIS":"6917.846","CENTER_NAME":"EARTH","GP_ID":"228405056","COUNTRY_CODE":"US","TLE_LINE1":"1 51868U 22022S   23077.76938105  .00004113  00000-0  27628-3 0  9991","MEAN_ANOMALY":"261.8117","MEAN_ELEMENT_THEORY":"SGP4","OBJECT_TYPE":"PAYLOAD","SITE":"AFETR","OBJECT_ID":"2022-022S","ECCENTRICITY":"0.00012290","MEAN_MOTION":"15.08851287","INCLINATION":"53.2153","DECAY_DATE":null,"MEAN_MOTION_DDOT":"0.0000000000000","EPOCH":"2023-03-18T18:27:54.522720","FILE":"3864479","CLASSIFICATION_TYPE":"U","ARG_OF_PERICENTER":"98.3014","RA_OF_ASC_NODE":"208.4918","NORAD_CAT_ID":"51868","REV_AT_EPOCH":"5902","TLE_LINE2":"2 51868  53.2153 208.4918 0001229  98.3014 261.8117 15.08851287 59027","PERIAPSIS":"538.861","TIME_SYSTEM":"UTC","OBJECT_NAME":"STARLINK-3578","APOAPSIS":"540.561","MEAN_MOTION_DOT":"0.00004113","BSTAR":"0.00027628000000","EPHEMERIS_TYPE":"0","ELEMENT_SET_NO":"999","REF_FRAME":"TEME","PERIOD":"95.437","LAUNCH_DATE":"2022-03-03","RCS_SIZE":"LARGE"},{"ECCENTRICITY":"0.00035450","OBJECT_ID":"2022-022T","SITE":"AFETR","OBJECT_TYPE":"PAYLOAD","MEAN_ELEMENT_THEORY":"SGP4","TLE_LINE1":"1 51869U 22022T   23077.88348112  .00004839  00000-0  32189-3 0  9991","MEAN_ANOMALY":"308.7719","GP_ID":"228405311","CENTER_NAME":"EARTH","COUNTRY_CODE":"US","SEMIMAJOR_AXIS":"6917.856","RA_OF_ASC_NODE":"207.9793","ARG_OF_PERICENTER":"51.3590","CLASSIFICATION_TYPE":"U","EPOCH":"2023-03-18T21:12:12.768768","FILE":"3864479","DECAY_DATE":null,"MEAN_MOTION_DDOT":"0.0000000000000","INCLINATION":"53.2164","MEAN_MOTION":"15.08848040","MEAN_MOTION_DOT":"0.00004839","OBJECT_NAME":"STARLINK-3588","APOAPSIS":"542.173","TIME_SYSTEM":"UTC","PERIAPSIS":"537.268","TLE_LINE2":"2 51869  53.2164 207.9793 0003545  51.3590 308.7719 15.08848040 59040","NORAD_CAT_ID":"51869","REV_AT_EPOCH":"5904","RCS_SIZE":"LARGE","LAUNCH_DATE":"2022-03-03","PERIOD":"95.437","REF_FRAME":"TEME","ELEMENT_SET_NO":"999","EPHEMERIS_TYPE":"0","BSTAR":"0.00032189000000"}];
